OBJECT B                
1 51825U 22019B   24162.90346108  .00014194  00000+0  62537-3 0  9995
2 51825  97.4285 234.3225 0013084 257.9247 102.0523 15.21851022126279
